STARLINK-36750          
1 67695U 26025C   26060.83032347  .00094805  00000+0  48996-3 0  9996
2 67695  97.2841 172.0348 0001415 111.5142 248.6277 15.80832093  4703
STARLINK-36401          
1 67696U 26025D   26060.83335647 -.00038345  00000+0 -25707-3 0  9990
2 67696  97.2846 172.0289 0001062  91.1281 267.8168 15.75216804  4597
STARLINK-36704          
1 67697U 26025E   26060.84520968  .00182535  00000+0  11967-2 0  9995
2 67697  97.2848 172.0120 0001319  79.6629 280.4785 15.75227812  4706
STARLINK-36697          
1 67698U 26025F   26060.82386223  .00276459  00000+0  13964-2 0  9996
2 67698  97.2841 172.0427 0001393 106.0060 254.1361 15.80852913  4706
STARLINK-36716          
1 67699U 26025G   26060.82213330  .00205257  00000+0  10446-2 0  9995
2 67699  97.2847 172.0450 0001514  71.6911 288.4521 15.80871929  4713
STARLINK-36712          
1 67700U 26025H   26060.83335647  .00006979  00000+0  47620-4 0  9991
2 67700  97.2851 172.0239 0001404  94.2720 254.6775 15.75190092  4549
STARLINK-36713          
1 67701U 26025J   26060.83709241  .00171963  00000+0  11294-2 0  9999
2 67701  97.2852 172.0226 0001164  59.9592 300.1788 15.75217116  4712
STARLINK-36695          
1 67702U 26025K   26060.83921085  .00151149  00000+0  99524-3 0  9999
2 67702  97.2856 172.0187 0001463  83.1745 276.9686 15.75216867  4702
STARLINK-36630          
1 67703U 26025L   26060.81592753  .00140989  00000+0  72382-3 0  9997
2 67703  97.2854 172.0521 0001531 100.8852 259.2588 15.80850366  4704
STARLINK-36338          
1 67704U 26025M   26060.83335647 -.00110595  00000+0 -74818-3 0  9995
2 67704  97.2848 172.0643 0001180  91.1871 357.7301 15.75253444  4644
STARLINK-36316          
1 67705U 26025N   26060.82756469  .00177511  00000+0  11647-2 0  9993
2 67705  97.2853 172.0352 0001310  73.3107 286.8302 15.75224651  4705
STARLINK-36707          
1 67706U 26025P   26060.80861861 -.00879099  00000+0 -55537-2 0  9993
2 67706  97.2861 172.0604 0002356  48.0582 312.0886 15.78815651  4700
