CCSDS_OMM_VERS = 2.0
CREATION_DATE  = 
ORIGINATOR     = 

OBJECT_NAME    = STARLINK-36750
OBJECT_ID      = 2026-025C
CENTER_NAME    = EARTH
REF_FRAME      = TEME
TIME_SYSTEM    = UTC
MEAN_ELEMENT_THEORY = SGP/SGP4

EPOCH          = 2026-03-01T19:55:39.947808
MEAN_MOTION    = 15.80832093
ECCENTRICITY   = .0001415
INCLINATION    = 97.2841
RA_OF_ASC_NODE = 172.0348
ARG_OF_PERICENTER = 111.5142
MEAN_ANOMALY   = 248.6277

EPHEMERIS_TYPE = 0
CLASSIFICATION_TYPE = U
NORAD_CAT_ID   = 67695
ELEMENT_SET_NO = 999
REV_AT_EPOCH   = 470
BSTAR          = .48996E-3
MEAN_MOTION_DOT = .94805E-3
MEAN_MOTION_DDOT = 0

CCSDS_OMM_VERS = 2.0
CREATION_DATE  = 
ORIGINATOR     = 

OBJECT_NAME    = STARLINK-36401
OBJECT_ID      = 2026-025D
CENTER_NAME    = EARTH
REF_FRAME      = TEME
TIME_SYSTEM    = UTC
MEAN_ELEMENT_THEORY = SGP/SGP4

EPOCH          = 2026-03-01T20:00:01.999008
MEAN_MOTION    = 15.75216804
ECCENTRICITY   = .0001062
INCLINATION    = 97.2846
RA_OF_ASC_NODE = 172.0289
ARG_OF_PERICENTER = 91.1281
MEAN_ANOMALY   = 267.8168

EPHEMERIS_TYPE = 0
CLASSIFICATION_TYPE = U
NORAD_CAT_ID   = 67696
ELEMENT_SET_NO = 999
REV_AT_EPOCH   = 459
BSTAR          = -.25707E-3
MEAN_MOTION_DOT = -.38345E-3
MEAN_MOTION_DDOT = 0

CCSDS_OMM_VERS = 2.0
CREATION_DATE  = 
ORIGINATOR     = 

OBJECT_NAME    = STARLINK-36704
OBJECT_ID      = 2026-025E
CENTER_NAME    = EARTH
REF_FRAME      = TEME
TIME_SYSTEM    = UTC
MEAN_ELEMENT_THEORY = SGP/SGP4

EPOCH          = 2026-03-01T20:17:06.116352
MEAN_MOTION    = 15.75227812
ECCENTRICITY   = .0001319
INCLINATION    = 97.2848
RA_OF_ASC_NODE = 172.0120
ARG_OF_PERICENTER = 79.6629
MEAN_ANOMALY   = 280.4785

EPHEMERIS_TYPE = 0
CLASSIFICATION_TYPE = U
NORAD_CAT_ID   = 67697
ELEMENT_SET_NO = 999
REV_AT_EPOCH   = 470
BSTAR          = .11967E-2
MEAN_MOTION_DOT = .182535E-2
MEAN_MOTION_DDOT = 0

CCSDS_OMM_VERS = 2.0
CREATION_DATE  = 
ORIGINATOR     = 

OBJECT_NAME    = STARLINK-36697
OBJECT_ID      = 2026-025F
CENTER_NAME    = EARTH
REF_FRAME      = TEME
TIME_SYSTEM    = UTC
MEAN_ELEMENT_THEORY = SGP/SGP4

EPOCH          = 2026-03-01T19:46:21.696672
MEAN_MOTION    = 15.80852913
ECCENTRICITY   = .0001393
INCLINATION    = 97.2841
RA_OF_ASC_NODE = 172.0427
ARG_OF_PERICENTER = 106.0060
MEAN_ANOMALY   = 254.1361

EPHEMERIS_TYPE = 0
CLASSIFICATION_TYPE = U
NORAD_CAT_ID   = 67698
ELEMENT_SET_NO = 999
REV_AT_EPOCH   = 470
BSTAR          = .13964E-2
MEAN_MOTION_DOT = .276459E-2
MEAN_MOTION_DDOT = 0

CCSDS_OMM_VERS = 2.0
CREATION_DATE  = 
ORIGINATOR     = 

OBJECT_NAME    = STARLINK-36716
OBJECT_ID      = 2026-025G
CENTER_NAME    = EARTH
REF_FRAME      = TEME
TIME_SYSTEM    = UTC
MEAN_ELEMENT_THEORY = SGP/SGP4

EPOCH          = 2026-03-01T19:43:52.317120
MEAN_MOTION    = 15.80871929
ECCENTRICITY   = .0001514
INCLINATION    = 97.2847
RA_OF_ASC_NODE = 172.0450
ARG_OF_PERICENTER = 71.6911
MEAN_ANOMALY   = 288.4521

EPHEMERIS_TYPE = 0
CLASSIFICATION_TYPE = U
NORAD_CAT_ID   = 67699
ELEMENT_SET_NO = 999
REV_AT_EPOCH   = 471
BSTAR          = .10446E-2
MEAN_MOTION_DOT = .205257E-2
MEAN_MOTION_DDOT = 0

CCSDS_OMM_VERS = 2.0
CREATION_DATE  = 
ORIGINATOR     = 

OBJECT_NAME    = STARLINK-36712
OBJECT_ID      = 2026-025H
CENTER_NAME    = EARTH
REF_FRAME      = TEME
TIME_SYSTEM    = UTC
MEAN_ELEMENT_THEORY = SGP/SGP4

EPOCH          = 2026-03-01T20:00:01.999008
MEAN_MOTION    = 15.75190092
ECCENTRICITY   = .0001404
INCLINATION    = 97.2851
RA_OF_ASC_NODE = 172.0239
ARG_OF_PERICENTER = 94.2720
MEAN_ANOMALY   = 254.6775

EPHEMERIS_TYPE = 0
CLASSIFICATION_TYPE = U
NORAD_CAT_ID   = 67700
ELEMENT_SET_NO = 999
REV_AT_EPOCH   = 454
BSTAR          = .4762E-4
MEAN_MOTION_DOT = .6979E-4
MEAN_MOTION_DDOT = 0

CCSDS_OMM_VERS = 2.0
CREATION_DATE  = 
ORIGINATOR     = 

OBJECT_NAME    = STARLINK-36713
OBJECT_ID      = 2026-025J
CENTER_NAME    = EARTH
REF_FRAME      = TEME
TIME_SYSTEM    = UTC
MEAN_ELEMENT_THEORY = SGP/SGP4

EPOCH          = 2026-03-01T20:05:24.784224
MEAN_MOTION    = 15.75217116
ECCENTRICITY   = .0001164
INCLINATION    = 97.2852
RA_OF_ASC_NODE = 172.0226
ARG_OF_PERICENTER = 59.9592
MEAN_ANOMALY   = 300.1788

EPHEMERIS_TYPE = 0
CLASSIFICATION_TYPE = U
NORAD_CAT_ID   = 67701
ELEMENT_SET_NO = 999
REV_AT_EPOCH   = 471
BSTAR          = .11294E-2
MEAN_MOTION_DOT = .171963E-2
MEAN_MOTION_DDOT = 0

CCSDS_OMM_VERS = 2.0
CREATION_DATE  = 
ORIGINATOR     = 

OBJECT_NAME    = STARLINK-36695
OBJECT_ID      = 2026-025K
CENTER_NAME    = EARTH
REF_FRAME      = TEME
TIME_SYSTEM    = UTC
MEAN_ELEMENT_THEORY = SGP/SGP4

EPOCH          = 2026-03-01T20:08:27.817440
MEAN_MOTION    = 15.75216867
ECCENTRICITY   = .0001463
INCLINATION    = 97.2856
RA_OF_ASC_NODE = 172.0187
ARG_OF_PERICENTER = 83.1745
MEAN_ANOMALY   = 276.9686

EPHEMERIS_TYPE = 0
CLASSIFICATION_TYPE = U
NORAD_CAT_ID   = 67702
ELEMENT_SET_NO = 999
REV_AT_EPOCH   = 470
BSTAR          = .99524E-3
MEAN_MOTION_DOT = .151149E-2
MEAN_MOTION_DDOT = 0

CCSDS_OMM_VERS = 2.0
CREATION_DATE  = 
ORIGINATOR     = 

OBJECT_NAME    = STARLINK-36630
OBJECT_ID      = 2026-025L
CENTER_NAME    = EARTH
REF_FRAME      = TEME
TIME_SYSTEM    = UTC
MEAN_ELEMENT_THEORY = SGP/SGP4

EPOCH          = 2026-03-01T19:34:56.138592
MEAN_MOTION    = 15.80850366
ECCENTRICITY   = .0001531
INCLINATION    = 97.2854
RA_OF_ASC_NODE = 172.0521
ARG_OF_PERICENTER = 100.8852
MEAN_ANOMALY   = 259.2588

EPHEMERIS_TYPE = 0
CLASSIFICATION_TYPE = U
NORAD_CAT_ID   = 67703
ELEMENT_SET_NO = 999
REV_AT_EPOCH   = 470
BSTAR          = .72382E-3
MEAN_MOTION_DOT = .140989E-2
MEAN_MOTION_DDOT = 0

CCSDS_OMM_VERS = 2.0
CREATION_DATE  = 
ORIGINATOR     = 

OBJECT_NAME    = STARLINK-36338
OBJECT_ID      = 2026-025M
CENTER_NAME    = EARTH
REF_FRAME      = TEME
TIME_SYSTEM    = UTC
MEAN_ELEMENT_THEORY = SGP/SGP4

EPOCH          = 2026-03-01T20:00:01.999008
MEAN_MOTION    = 15.75253444
ECCENTRICITY   = .000118
INCLINATION    = 97.2848
RA_OF_ASC_NODE = 172.0643
ARG_OF_PERICENTER = 91.1871
MEAN_ANOMALY   = 357.7301

EPHEMERIS_TYPE = 0
CLASSIFICATION_TYPE = U
NORAD_CAT_ID   = 67704
ELEMENT_SET_NO = 999
REV_AT_EPOCH   = 464
BSTAR          = -.74818E-3
MEAN_MOTION_DOT = -.110595E-2
MEAN_MOTION_DDOT = 0

CCSDS_OMM_VERS = 2.0
CREATION_DATE  = 
ORIGINATOR     = 

OBJECT_NAME    = STARLINK-36316
OBJECT_ID      = 2026-025N
CENTER_NAME    = EARTH
REF_FRAME      = TEME
TIME_SYSTEM    = UTC
MEAN_ELEMENT_THEORY = SGP/SGP4

EPOCH          = 2026-03-01T19:51:41.589216
MEAN_MOTION    = 15.75224651
ECCENTRICITY   = .000131
INCLINATION    = 97.2853
RA_OF_ASC_NODE = 172.0352
ARG_OF_PERICENTER = 73.3107
MEAN_ANOMALY   = 286.8302

EPHEMERIS_TYPE = 0
CLASSIFICATION_TYPE = U
NORAD_CAT_ID   = 67705
ELEMENT_SET_NO = 999
REV_AT_EPOCH   = 470
BSTAR          = .11647E-2
MEAN_MOTION_DOT = .177511E-2
MEAN_MOTION_DDOT = 0

CCSDS_OMM_VERS = 2.0
CREATION_DATE  = 
ORIGINATOR     = 

OBJECT_NAME    = STARLINK-36707
OBJECT_ID      = 2026-025P
CENTER_NAME    = EARTH
REF_FRAME      = TEME
TIME_SYSTEM    = UTC
MEAN_ELEMENT_THEORY = SGP/SGP4

EPOCH          = 2026-03-01T19:24:24.647904
MEAN_MOTION    = 15.78815651
ECCENTRICITY   = .0002356
INCLINATION    = 97.2861
RA_OF_ASC_NODE = 172.0604
ARG_OF_PERICENTER = 48.0582
MEAN_ANOMALY   = 312.0886

EPHEMERIS_TYPE = 0
CLASSIFICATION_TYPE = U
NORAD_CAT_ID   = 67706
ELEMENT_SET_NO = 999
REV_AT_EPOCH   = 470
BSTAR          = -.55537E-2
MEAN_MOTION_DOT = -.879099E-2
MEAN_MOTION_DDOT = 0

